{"fetched_at":"2026-07-23T17:55:10.095Z","source":"https://celestrak.org/NORAD/elements/gp.php?GROUP=planet&FORMAT=JSON","constellation":"superdove","records":[{"OBJECT_NAME":"FLOCK 4H-16","OBJECT_ID":"2025-276BF","EPOCH":"2026-07-23T04:00:25.407936","CLASSIFICATION_TYPE":"U","MEAN_MOTION":15.20223663,"ECCENTRICITY":0.00033556,"INCLINATION":97.4221,"RA_OF_ASC_NODE":277.1788,"ARG_OF_PERICENTER":216.5615,"MEAN_ANOMALY":143.5392,"EPHEMERIS_TYPE":0,"NORAD_CAT_ID":66719,"ELEMENT_SET_NO":999,"REV_AT_EPOCH":3588,"BSTAR":0.00032517966,"MEAN_MOTION_DOT":0.00006984,"MEAN_MOTION_DDOT":0},{"OBJECT_NAME":"FLOCK 4H-18","OBJECT_ID":"2025-276BH","EPOCH":"2026-07-23T04:09:44.292384","CLASSIFICATION_TYPE":"U","MEAN_MOTION":15.20166252,"ECCENTRICITY":0.00023947,"INCLINATION":97.4163,"RA_OF_ASC_NODE":276.9918,"ARG_OF_PERICENTER":244.3797,"MEAN_ANOMALY":115.7191,"EPHEMERIS_TYPE":0,"NORAD_CAT_ID":66721,"ELEMENT_SET_NO":999,"REV_AT_EPOCH":3588,"BSTAR":0.00030650449,"MEAN_MOTION_DOT":0.00006567,"MEAN_MOTION_DDOT":0},{"OBJECT_NAME":"FLOCK 4H-19","OBJECT_ID":"2025-276BJ","EPOCH":"2026-07-23T03:59:43.847808","CLASSIFICATION_TYPE":"U","MEAN_MOTION":15.2134695,"ECCENTRICITY":0.00029455,"INCLINATION":97.4162,"RA_OF_ASC_NODE":277.4619,"ARG_OF_PERICENTER":134.1402,"MEAN_ANOMALY":226.0077,"EPHEMERIS_TYPE":0,"NORAD_CAT_ID":66722,"ELEMENT_SET_NO":999,"REV_AT_EPOCH":3520,"BSTAR":0.00026095141,"MEAN_MOTION_DOT":0.00005777,"MEAN_MOTION_DDOT":0},{"OBJECT_NAME":"FLOCK 4H-20","OBJECT_ID":"2025-276BK","EPOCH":"2026-07-23T04:01:34.484736","CLASSIFICATION_TYPE":"U","MEAN_MOTION":15.21519188,"ECCENTRICITY":0.00035782,"INCLINATION":97.42,"RA_OF_ASC_NODE":277.5752,"ARG_OF_PERICENTER":149.8505,"MEAN_ANOMALY":210.2937,"EPHEMERIS_TYPE":0,"NORAD_CAT_ID":66723,"ELEMENT_SET_NO":999,"REV_AT_EPOCH":3516,"BSTAR":0.00031576327,"MEAN_MOTION_DOT":0.00007042,"MEAN_MOTION_DDOT":0},{"OBJECT_NAME":"FLOCK 4H-21","OBJECT_ID":"2025-276BL","EPOCH":"2026-07-23T04:49:51.881088","CLASSIFICATION_TYPE":"U","MEAN_MOTION":15.21104661,"ECCENTRICITY":0.00033973,"INCLINATION":97.4165,"RA_OF_ASC_NODE":277.4234,"ARG_OF_PERICENTER":148.859,"MEAN_ANOMALY":211.2848,"EPHEMERIS_TYPE":0,"NORAD_CAT_ID":66724,"ELEMENT_SET_NO":999,"REV_AT_EPOCH":3516,"BSTAR":0.00032207208,"MEAN_MOTION_DOT":0.00007097,"MEAN_MOTION_DDOT":0},{"OBJECT_NAME":"FLOCK 4H-22","OBJECT_ID":"2025-276BM","EPOCH":"2026-07-23T04:23:04.781472","CLASSIFICATION_TYPE":"U","MEAN_MOTION":15.20602314,"ECCENTRICITY":0.00012625,"INCLINATION":97.4157,"RA_OF_ASC_NODE":277.1088,"ARG_OF_PERICENTER":230.0101,"MEAN_ANOMALY":130.1023,"EPHEMERIS_TYPE":0,"NORAD_CAT_ID":66725,"ELEMENT_SET_NO":999,"REV_AT_EPOCH":3589,"BSTAR":0.00032654413,"MEAN_MOTION_DOT":0.00007091,"MEAN_MOTION_DDOT":0},{"OBJECT_NAME":"FLOCK 4H-23","OBJECT_ID":"2025-276BN","EPOCH":"2026-07-23T04:08:57.058368","CLASSIFICATION_TYPE":"U","MEAN_MOTION":15.20144277,"ECCENTRICITY":0.00036543,"INCLINATION":97.4226,"RA_OF_ASC_NODE":277.1854,"ARG_OF_PERICENTER":207.7582,"MEAN_ANOMALY":152.3459,"EPHEMERIS_TYPE":0,"NORAD_CAT_ID":66726,"ELEMENT_SET_NO":999,"REV_AT_EPOCH":3588,"BSTAR":0.00031246899,"MEAN_MOTION_DOT":0.00006692,"MEAN_MOTION_DDOT":0},{"OBJECT_NAME":"FLOCK 4H-24","OBJECT_ID":"2025-276BP","EPOCH":"2026-07-23T03:46:12.695232","CLASSIFICATION_TYPE":"U","MEAN_MOTION":15.20255029,"ECCENTRICITY":0.0002829,"INCLINATION":97.4219,"RA_OF_ASC_NODE":277.1997,"ARG_OF_PERICENTER":224.5101,"MEAN_ANOMALY":135.5907,"EPHEMERIS_TYPE":0,"NORAD_CAT_ID":66727,"ELEMENT_SET_NO":999,"REV_AT_EPOCH":3588,"BSTAR":0.00033300068,"MEAN_MOTION_DOT":0.0000716,"MEAN_MOTION_DDOT":0},{"OBJECT_NAME":"FLOCK 4H-25","OBJECT_ID":"2025-276BQ","EPOCH":"2026-07-23T03:42:21.824064","CLASSIFICATION_TYPE":"U","MEAN_MOTION":15.21018493,"ECCENTRICITY":0.00021889,"INCLINATION":97.4178,"RA_OF_ASC_NODE":277.3688,"ARG_OF_PERICENTER":120.0687,"MEAN_ANOMALY":240.0766,"EPHEMERIS_TYPE":0,"NORAD_CAT_ID":66728,"ELEMENT_SET_NO":999,"REV_AT_EPOCH":3518,"BSTAR":0.0003173003,"MEAN_MOTION_DOT":0.00006973,"MEAN_MOTION_DDOT":0},{"OBJECT_NAME":"FLOCK 4H-26","OBJECT_ID":"2025-276BR","EPOCH":"2026-07-23T04:36:26.847360","CLASSIFICATION_TYPE":"U","MEAN_MOTION":15.19976721,"ECCENTRICITY":0.00036961,"INCLINATION":97.4173,"RA_OF_ASC_NODE":277.0077,"ARG_OF_PERICENTER":226.6793,"MEAN_ANOMALY":133.4134,"EPHEMERIS_TYPE":0,"NORAD_CAT_ID":66729,"ELEMENT_SET_NO":999,"REV_AT_EPOCH":3588,"BSTAR":0.00029932593,"MEAN_MOTION_DOT":0.00006376,"MEAN_MOTION_DDOT":0},{"OBJECT_NAME":"FLOCK 4H-27","OBJECT_ID":"2025-276BS","EPOCH":"2026-07-23T04:27:46.891296","CLASSIFICATION_TYPE":"U","MEAN_MOTION":15.20842027,"ECCENTRICITY":0.00019139,"INCLINATION":97.4153,"RA_OF_ASC_NODE":277.2485,"ARG_OF_PERICENTER":123.9681,"MEAN_ANOMALY":236.1737,"EPHEMERIS_TYPE":0,"NORAD_CAT_ID":66730,"ELEMENT_SET_NO":999,"REV_AT_EPOCH":3590,"BSTAR":0.00029412789,"MEAN_MOTION_DOT":0.00006425,"MEAN_MOTION_DDOT":0},{"OBJECT_NAME":"FLOCK 4H-29","OBJECT_ID":"2025-276BU","EPOCH":"2026-07-23T04:05:54.555648","CLASSIFICATION_TYPE":"U","MEAN_MOTION":15.2011558,"ECCENTRICITY":0.00020033,"INCLINATION":97.4156,"RA_OF_ASC_NODE":276.9689,"ARG_OF_PERICENTER":233.1622,"MEAN_ANOMALY":126.943,"EPHEMERIS_TYPE":0,"NORAD_CAT_ID":66732,"ELEMENT_SET_NO":999,"REV_AT_EPOCH":3588,"BSTAR":0.00030295092,"MEAN_MOTION_DOT":0.0000648,"MEAN_MOTION_DDOT":0},{"OBJECT_NAME":"FLOCK 4H-30","OBJECT_ID":"2025-276BV","EPOCH":"2026-07-23T03:53:18.721536","CLASSIFICATION_TYPE":"U","MEAN_MOTION":15.20242673,"ECCENTRICITY":0.000318,"INCLINATION":97.4215,"RA_OF_ASC_NODE":277.1755,"ARG_OF_PERICENTER":224.7454,"MEAN_ANOMALY":135.3525,"EPHEMERIS_TYPE":0,"NORAD_CAT_ID":66733,"ELEMENT_SET_NO":999,"REV_AT_EPOCH":3588,"BSTAR":0.0003341021,"MEAN_MOTION_DOT":0.00007181,"MEAN_MOTION_DDOT":0},{"OBJECT_NAME":"FLOCK 4H-31","OBJECT_ID":"2025-276BW","EPOCH":"2026-07-23T04:25:13.961568","CLASSIFICATION_TYPE":"U","MEAN_MOTION":15.20012067,"ECCENTRICITY":0.00024408,"INCLINATION":97.4153,"RA_OF_ASC_NODE":276.9478,"ARG_OF_PERICENTER":231.8107,"MEAN_ANOMALY":128.2908,"EPHEMERIS_TYPE":0,"NORAD_CAT_ID":66734,"ELEMENT_SET_NO":999,"REV_AT_EPOCH":3588,"BSTAR":0.00028978306,"MEAN_MOTION_DOT":0.00006177,"MEAN_MOTION_DDOT":0},{"OBJECT_NAME":"FLOCK 4H-32","OBJECT_ID":"2025-276BX","EPOCH":"2026-07-23T04:06:54.817920","CLASSIFICATION_TYPE":"U","MEAN_MOTION":15.20132723,"ECCENTRICITY":0.00035086,"INCLINATION":97.4211,"RA_OF_ASC_NODE":277.1388,"ARG_OF_PERICENTER":223.1251,"MEAN_ANOMALY":136.9709,"EPHEMERIS_TYPE":0,"NORAD_CAT_ID":66735,"ELEMENT_SET_NO":999,"REV_AT_EPOCH":3588,"BSTAR":0.00031526635,"MEAN_MOTION_DOT":0.0000675,"MEAN_MOTION_DDOT":0},{"OBJECT_NAME":"FLOCK 4H-33","OBJECT_ID":"2025-276BY","EPOCH":"2026-07-23T06:07:37.351488","CLASSIFICATION_TYPE":"U","MEAN_MOTION":15.21259298,"ECCENTRICITY":0.00033923,"INCLINATION":97.4206,"RA_OF_ASC_NODE":277.6276,"ARG_OF_PERICENTER":143.4323,"MEAN_ANOMALY":216.7145,"EPHEMERIS_TYPE":0,"NORAD_CAT_ID":66736,"ELEMENT_SET_NO":999,"REV_AT_EPOCH":3592,"BSTAR":0.00026961054,"MEAN_MOTION_DOT":0.00005956,"MEAN_MOTION_DDOT":0}]}
