FLOCK 4H-16             
1 66719U 25276BF  26204.16696074  .00006984  00000+0  32518-3 0  9992
2 66719  97.4221 277.1788 0003355 216.5615 143.5392 15.20223663 35889
FLOCK 4H-18             
1 66721U 25276BH  26204.17342931  .00006567  00000+0  30650-3 0  9998
2 66721  97.4163 276.9918 0002394 244.3797 115.7191 15.20166252 35889
FLOCK 4H-19             
1 66722U 25276BJ  26204.16647972  .00005777  00000+0  26095-3 0  9991
2 66722  97.4162 277.4619 0002945 134.1402 226.0077 15.21346950 35205
FLOCK 4H-20             
1 66723U 25276BK  26204.16776024  .00007042  00000+0  31576-3 0  9990
2 66723  97.4200 277.5752 0003578 149.8505 210.2937 15.21519188 35168
FLOCK 4H-21             
1 66724U 25276BL  26204.20129492  .00007097  00000+0  32207-3 0  9999
2 66724  97.4165 277.4234 0003397 148.8590 211.2848 15.21104661 35163
FLOCK 4H-22             
1 66725U 25276BM  26204.18269423  .00007091  00000+0  32654-3 0  9996
2 66725  97.4157 277.1088 0001262 230.0101 130.1023 15.20602314 35891
FLOCK 4H-23             
1 66726U 25276BN  26204.17288262  .00006692  00000+0  31247-3 0  9991
2 66726  97.4226 277.1854 0003654 207.7582 152.3459 15.20144277 35888
FLOCK 4H-24             
1 66727U 25276BP  26204.15709138  .00007160  00000+0  33300-3 0  9993
2 66727  97.4219 277.1997 0002829 224.5101 135.5907 15.20255029 35885
FLOCK 4H-25             
1 66728U 25276BQ  26204.15441926  .00006973  00000+0  31730-3 0  9998
2 66728  97.4178 277.3688 0002188 120.0687 240.0766 15.21018493 35187
FLOCK 4H-26             
1 66729U 25276BR  26204.19197740  .00006376  00000+0  29933-3 0  9994
2 66729  97.4173 277.0077 0003696 226.6793 133.4134 15.19976721 35883
FLOCK 4H-27             
1 66730U 25276BS  26204.18595939  .00006425  00000+0  29413-3 0  9995
2 66730  97.4153 277.2485 0001913 123.9681 236.1737 15.20842027 35909
FLOCK 4H-29             
1 66732U 25276BU  26204.17077032  .00006480  00000+0  30295-3 0  9996
2 66732  97.4156 276.9689 0002003 233.1622 126.9430 15.20115580 35886
FLOCK 4H-30             
1 66733U 25276BV  26204.16202224  .00007181  00000+0  33410-3 0  9990
2 66733  97.4215 277.1755 0003180 224.7454 135.3525 15.20242673 35889
FLOCK 4H-31             
1 66734U 25276BW  26204.18418937  .00006177  00000+0  28978-3 0  9990
2 66734  97.4153 276.9478 0002440 231.8107 128.2908 15.20012067 35880
FLOCK 4H-32             
1 66735U 25276BX  26204.17146780  .00006750  00000+0  31527-3 0  9995
2 66735  97.4211 277.1388 0003508 223.1251 136.9709 15.20132723 35886
FLOCK 4H-33             
1 66736U 25276BY  26204.25529342  .00005956  00000+0  26961-3 0  9997
2 66736  97.4206 277.6276 0003392 143.4323 216.7145 15.21259298 35921
